NORAD_CAT_ID,OBJECT_NAME,OBJECT_TYPE,EPOCH,MEAN_MOTION,ECCENTRICITY,INCLINATION,RA_OF_ASC_NODE,ARG_OF_PERICENTER,MEAN_ANOMALY,BSTAR,MEAN_MOTION_DOT,MEAN_MOTION_DDOT,TLE_LINE0,TLE_LINE1,TLE_LINE2,SEMIMAJOR_AXIS,PERIOD,APOGEE,PERIGEE,DECAYED
51787.0,STARLINK-3619,PAYLOAD,2024-03-12 13:18:01,15.08848569,0.0001405,53.2189,13.3592,87.8037,272.3116,7.2078e-05,8.6e-06,0.0,0 STARLINK-3619,1 51787U 22017V   24072.55417894  .00000860  00000-0  72078-4 0  9990,2 51787  53.2189  13.3592 0001405  87.8037 272.3116 15.08848569114141,6917.854,95.437,540.691,538.747,0.0
51787.0,STARLINK-3619,PAYLOAD,2024-03-13 02:01:06,15.08837142,0.0001355,53.2193,10.9769,100.1843,259.9302,4.5828e-05,4.41e-06,0.0,0 STARLINK-3619,1 51787U 22017V   24073.08410793  .00000441  00000-0  45828-4 0  9998,2 51787  53.2193  10.9769 0001355 100.1843 259.9302 15.08837142114225,6917.889,95.438,540.691,538.817,0.0
51787.0,STARLINK-3619,PAYLOAD,2024-03-13 19:30:20,15.08844351,0.0001582,53.2191,7.7091,87.2919,272.8254,0.00019902,2.881e-05,0.0,0 STARLINK-3619,1 51787U 22017V   24073.81274116  .00002881  00000-0  19902-3 0  9999,2 51787  53.2191   7.7091 0001582  87.2919 272.8254 15.08844351114338,6917.867,95.437,540.826,538.638,0.0
51787.0,STARLINK-3619,PAYLOAD,2024-03-14 05:02:39,15.08848393,0.0001417,53.218,5.9228,94.7528,265.3626,0.0001833,2.631e-05,0.0,0 STARLINK-3619,1 51787U 22017V   24074.21018085  .00002631  00000-0  18330-3 0  9992,2 51787  53.2180   5.9228 0001417  94.7528 265.3626 15.08848393112758,6917.855,95.437,540.7,538.739,0.0
51787.0,STARLINK-3619,PAYLOAD,2024-03-14 22:31:54,15.08838189,0.0001599,53.2185,2.6507,96.9163,263.2011,8.651e-05,1.089e-05,0.0,0 STARLINK-3619,1 51787U 22017V   24074.93882631  .00001089  00000-0  86510-4 0  9999,2 51787  53.2185   2.6507 0001599  96.9163 263.2011 15.08838189112866,6917.886,95.438,540.857,538.645,0.0
51787.0,STARLINK-3619,PAYLOAD,2024-03-15 04:53:27,15.0883752,0.0001529,53.2189,1.4613,119.6705,240.4439,1.2864e-05,-8.3e-07,0.0,0 STARLINK-3619,1 51787U 22017V   24075.20378699 -.00000083  00000-0  12864-4 0  9999,2 51787  53.2189   1.4613 0001529 119.6705 240.4439 15.08837520114549,6917.888,95.438,540.811,538.695,0.0
51787.0,STARLINK-3619,PAYLOAD,2024-03-15 22:22:41,15.08838544,0.0001463,53.2187,358.1904,115.9342,244.1801,-3.939e-06,-3.51e-06,0.0,0 STARLINK-3619,1 51787U 22017V   24075.93242764 -.00000351  00000-0 -39390-5 0  9995,2 51787  53.2187 358.1904 0001463 115.9342 244.1801 15.08838544113017,6917.885,95.438,540.762,538.738,0.0
51787.0,STARLINK-3619,PAYLOAD,2024-03-16 04:44:14,15.0883879,0.0001443,53.2188,357.0012,112.5508,247.5637,-9.6302e-06,-4.41e-06,0.0,0 STARLINK-3619,1 51787U 22017V   24076.19738742 -.00000441  00000-0 -96302-5 0  9996,2 51787  53.2188 357.0012 0001443 112.5508 247.5637 15.08838790113052,6917.884,95.438,540.747,538.751,0.0
51787.0,STARLINK-3619,PAYLOAD,2024-03-16 22:13:29,15.08833305,0.0001339,53.219,353.7304,103.6793,256.4349,8.0158e-05,9.88e-06,0.0,0 STARLINK-3619,1 51787U 22017V   24076.92603074  .00000988  00000-0  80158-4 0  9991,2 51787  53.2190 353.7304 0001339 103.6793 256.4349 15.08833305113161,6917.901,95.438,540.692,538.84,0.0
51787.0,STARLINK-3619,PAYLOAD,2024-03-16 23:48:52,15.08833983,0.0001332,53.2189,353.4331,102.0372,258.077,8.5045e-05,1.066e-05,0.0,0 STARLINK-3619,1 51787U 22017V   24076.99227057  .00001066  00000-0  85045-4 0  9999,2 51787  53.2189 353.4331 0001332 102.0372 258.0770 15.08833983114816,6917.899,95.438,540.685,538.842,0.0
51787.0,STARLINK-3619,PAYLOAD,2024-03-17 22:04:16,15.08838434,0.0001307,53.2192,349.2708,87.8703,272.2438,7.2062e-05,8.59e-06,0.0,0 STARLINK-3619,1 51787U 22017V   24077.91963111  .00000859  00000-0  72062-4 0  9994,2 51787  53.2192 349.2708 0001307  87.8703 272.2438 15.08838434113310,6917.885,95.438,540.654,538.846,0.0
51787.0,STARLINK-3619,PAYLOAD,2024-03-17 23:39:39,15.08839052,0.0001304,53.219,348.9734,88.1872,271.927,7.638e-05,9.28e-06,0.0,0 STARLINK-3619,1 51787U 22017V   24077.98587066  .00000928  00000-0  76380-4 0  9996,2 51787  53.2190 348.9734 0001304  88.1872 271.9270 15.08839052113329,6917.883,95.438,540.65,538.846,0.0
51787.0,STARLINK-3619,PAYLOAD,2024-03-18 21:55:03,15.08840025,0.0001261,53.2186,344.811,84.1547,275.9589,5.0541e-05,5.17e-06,0.0,0 STARLINK-3619,1 51787U 22017V   24078.91323193  .00000517  00000-0  50541-4 0  9994,2 51787  53.2186 344.8110 0001261  84.1547 275.9589 15.08840025113468,6917.88,95.438,540.618,538.873,0.0
51787.0,STARLINK-3619,PAYLOAD,2024-03-19 01:05:49,15.0884173,0.0001273,53.2188,344.2171,83.4732,276.6405,6.1553e-05,6.92e-06,0.0,0 STARLINK-3619,1 51787U 22017V   24079.04571063  .00000692  00000-0  61553-4 0  9999,2 51787  53.2188 344.2171 0001273  83.4732 276.6405 15.08841730115126,6917.875,95.437,540.621,538.859,0.0
51787.0,STARLINK-3619,PAYLOAD,2024-03-19 21:45:49,15.08850153,0.0001269,53.2186,340.3521,86.3873,273.7264,0.00012652,1.727e-05,0.0,0 STARLINK-3619,1 51787U 22017V   24079.90682098  .00001727  00000-0  12652-3 0  9990,2 51787  53.2186 340.3521 0001269  86.3873 273.7264 15.08850153115257,6917.849,95.437,540.592,538.836,0.0
51787.0,STARLINK-3619,PAYLOAD,2024-03-20 00:56:35,15.08851632,0.00013,53.2189,339.7581,87.991,272.1231,0.00013946,1.933e-05,0.0,0 STARLINK-3619,1 51787U 22017V   24080.03929945  .00001933  00000-0  13946-3 0  9997,2 51787  53.2189 339.7581 0001300  87.9910 272.1231 15.08851632113633,6917.845,95.437,540.609,538.811,0.0
51787.0,STARLINK-3619,PAYLOAD,2024-03-20 23:12:00,15.08837048,0.0001537,53.22,335.5926,76.482,283.6343,-1.4981e-05,-5.26e-06,0.0,0 STARLINK-3619,1 51787U 22017V   24080.96667552 -.00000526  00000-0 -14981-4 0  9992,2 51787  53.2200 335.5926 0001537  76.4820 283.6343 15.08837048113770,6917.889,95.438,540.818,538.691,0.0
51787.0,STARLINK-3619,PAYLOAD,2024-03-21 02:22:48,15.08822376,0.0001098,53.2187,334.9995,79.5507,280.5609,-0.0001413,-2.535e-05,0.0,0 STARLINK-3619,1 51787U 22017V   24081.09916730 -.00002535  00000-0 -14130-3 0  9999,2 51787  53.2187 334.9995 0001098  79.5507 280.5609 15.08822376115435,6917.934,95.439,540.559,539.04,0.0
51787.0,STARLINK-3619,PAYLOAD,2024-03-21 10:19:43,15.08829444,0.0001208,53.2194,333.5169,67.4666,292.6454,-8.5057e-05,-1.641e-05,0.0,0 STARLINK-3619,1 51787U 22017V   24081.43036507 -.00001641  00000-0 -85057-4 0  9996,2 51787  53.2194 333.5169 0001208  67.4666 292.6454 15.08829444115486,6917.913,95.438,540.613,538.942,0.0
51787.0,STARLINK-3619,PAYLOAD,2024-03-21 21:27:24,15.08837772,9.8e-06,53.2185,331.4313,66.4746,293.6257,-4.1561e-05,-9.49e-06,0.0,0 STARLINK-3619,1 51787U 22017V   24081.89403541 -.00000949  00000-0 -41561-4 0  9994,2 51787  53.2185 331.4313 0000098  66.4746 293.6257 15.08837772115551,6917.887,95.438,539.82,539.684,0.0
51787.0,STARLINK-3619,PAYLOAD,2024-03-22 02:13:33,15.08849756,0.0001651,53.2196,330.5317,95.326,264.792,0.00025325,3.746e-05,0.0,0 STARLINK-3619,1 51787U 22017V   24082.09275079  .00003746  00000-0  25325-3 0  9995,2 51787  53.2196 330.5317 0001651  95.3260 264.7920 15.08849756115589,6917.851,95.437,540.858,538.573,0.0
51787.0,STARLINK-3619,PAYLOAD,2024-03-22 21:18:12,15.08819597,0.0001685,53.2172,326.9624,123.9681,236.1471,0.00097094,0.0001519,0.0,0 STARLINK-3619,1 51787U 22017V   24082.88764334  .00015190  00000-0  97094-3 0  9997,2 51787  53.2172 326.9624 0001685 123.9681 236.1471 15.08819597115703,6917.943,95.439,540.973,538.642,0.0
51787.0,STARLINK-3619,PAYLOAD,2024-03-22 22:53:34,15.08836605,0.0001239,53.2172,326.6664,106.1659,253.947,0.00039233,5.961e-05,0.0,0 STARLINK-3619,1 51787U 22017V   24082.95387641  .00005961  00000-0  39233-3 0  9993,2 51787  53.2172 326.6664 0001239 106.1659 253.9470 15.08836605115713,6917.891,95.438,540.613,538.899,0.0
51787.0,STARLINK-3619,PAYLOAD,2024-03-23 22:44:21,15.08848385,0.0001233,53.2176,322.2043,93.1591,266.9542,-1.1623e-05,-4.73e-06,0.0,0 STARLINK-3619,1 51787U 22017V   24083.94747094 -.00000473  00000-0 -11623-4 0  9994,2 51787  53.2176 322.2043 0001233  93.1591 266.9542 15.08848385114221,6917.855,95.437,540.573,538.867,0.0
51787.0,STARLINK-3619,PAYLOAD,2024-03-24 08:16:38,15.08870737,9.92e-05,53.2174,320.4247,71.6507,288.4593,0.00010496,1.384e-05,0.0,0 STARLINK-3619,1 51787U 22017V   24084.34488811  .00001384  00000-0  10496-3 0  9994,2 51787  53.2174 320.4247 0000992  71.6507 288.4593 15.08870737115923,6917.786,95.436,540.338,538.965,0.0
51787.0,STARLINK-3619,PAYLOAD,2024-03-24 20:59:46,15.088286,0.0001287,53.2179,318.0435,106.5716,253.5417,-2.2996e-05,-6.54e-06,0.0,0 STARLINK-3619,1 51787U 22017V   24084.87484590 -.00000654  00000-0 -22996-4 0  9992,2 51787  53.2179 318.0435 0001287 106.5716 253.5417 15.08828600116008,6917.915,95.438,540.671,538.89,0.0
51787.0,STARLINK-3619,PAYLOAD,2024-03-24 22:35:09,15.08829236,0.0001246,53.2181,317.7533,107.6629,252.45,-1.6851e-05,-5.56e-06,0.0,0 STARLINK-3619,1 51787U 22017V   24084.94108643 -.00000556  00000-0 -16851-4 0  9996,2 51787  53.2181 317.7533 0001246 107.6629 252.4500 15.08829236114371,6917.913,95.438,540.64,538.916,0.0
51787.0,STARLINK-3619,PAYLOAD,2024-03-25 08:07:27,15.08842074,0.0001084,53.2179,315.9648,88.3517,271.7599,8.9538e-05,1.138e-05,0.0,0 STARLINK-3619,1 51787U 22017V   24085.33851375  .00001138  00000-0  89538-4 0  9994,2 51787  53.2179 315.9648 0001084  88.3517 271.7599 15.08842074116072,6917.874,95.437,540.489,538.989,0.0
51787.0,STARLINK-3619,PAYLOAD,2024-03-25 20:50:31,15.08863003,0.0001197,53.2176,313.5859,112.8844,247.2275,0.00021784,3.183e-05,0.0,0 STARLINK-3619,1 51787U 22017V   24085.86841731  .00003183  00000-0  21784-3 0  9997,2 51787  53.2176 313.5859 0001197 112.8844 247.2275 15.08863003116151,6917.81,95.436,540.503,538.847,0.0
51787.0,STARLINK-3619,PAYLOAD,2024-03-25 22:25:54,15.08865484,0.0001048,53.2175,313.2921,94.9938,265.1174,0.00016741,2.379e-05,0.0,0 STARLINK-3619,1 51787U 22017V   24085.93465813  .00002379  00000-0  16741-3 0  9991,2 51787  53.2175 313.2921 0001048  94.9938 265.1174 15.08865484114527,6917.802,95.436,540.392,538.943,0.0
